[{"OBJECT_NAME":"STARLINK-36936","OBJECT_ID":"2026-039AC","EPOCH":"2026-03-20T02:00:03.000384","MEAN_MOTION":15.55300044,"ECCENTRICITY":0.000151,"INCLINATION":42.9989,"RA_OF_ASC_NODE":351.7033,"ARG_OF_PERICENTER":269.3916,"MEAN_ANOMALY":175.7336,"EPHEMERIS_TYPE":0,"CLASSIFICATION_TYPE":"U","NORAD_CAT_ID":68012,"ELEMENT_SET_NO":999,"REV_AT_EPOCH":454,"BSTAR":-0.030593,"MEAN_MOTION_DOT":-0.01881644,"MEAN_MOTION_DDOT":0},{"OBJECT_NAME":"STARLINK-36967","OBJECT_ID":"2026-039AD","EPOCH":"2026-03-20T02:00:03.000384","MEAN_MOTION":15.50589308,"ECCENTRICITY":0.0001401,"INCLINATION":42.9998,"RA_OF_ASC_NODE":352.3222,"ARG_OF_PERICENTER":278.5795,"MEAN_ANOMALY":276.3474,"EPHEMERIS_TYPE":0,"CLASSIFICATION_TYPE":"U","NORAD_CAT_ID":68013,"ELEMENT_SET_NO":999,"REV_AT_EPOCH":454,"BSTAR":-0.0010783,"MEAN_MOTION_DOT":-0.00063116,"MEAN_MOTION_DDOT":0},{"OBJECT_NAME":"STARLINK-36985","OBJECT_ID":"2026-039AE","EPOCH":"2026-03-20T02:00:03.000384","MEAN_MOTION":15.63463091,"ECCENTRICITY":0.0001297,"INCLINATION":42.9994,"RA_OF_ASC_NODE":351.3204,"ARG_OF_PERICENTER":256.0709,"MEAN_ANOMALY":343.3621,"EPHEMERIS_TYPE":0,"CLASSIFICATION_TYPE":"U","NORAD_CAT_ID":68014,"ELEMENT_SET_NO":999,"REV_AT_EPOCH":454,"BSTAR":-0.023086,"MEAN_MOTION_DOT":-0.01937102,"MEAN_MOTION_DDOT":0},{"OBJECT_NAME":"STARLINK-36335","OBJECT_ID":"2026-040A","EPOCH":"2026-03-20T02:00:03.000384","MEAN_MOTION":15.78720765,"ECCENTRICITY":0.0001667,"INCLINATION":97.2798,"RA_OF_ASC_NODE":28.0327,"ARG_OF_PERICENTER":116.0214,"MEAN_ANOMALY":150.474,"EPHEMERIS_TYPE":0,"CLASSIFICATION_TYPE":"U","NORAD_CAT_ID":68015,"ELEMENT_SET_NO":999,"REV_AT_EPOCH":404,"BSTAR":-0.012904,"MEAN_MOTION_DOT":-0.01954558,"MEAN_MOTION_DDOT":0},{"OBJECT_NAME":"STARLINK-36923","OBJECT_ID":"2026-040B","EPOCH":"2026-03-19T20:00:01.999872","MEAN_MOTION":15.7922321,"ECCENTRICITY":0.00011574,"INCLINATION":97.279,"RA_OF_ASC_NODE":27.7742,"ARG_OF_PERICENTER":89.6838,"MEAN_ANOMALY":204.3545,"EPHEMERIS_TYPE":0,"CLASSIFICATION_TYPE":"U","NORAD_CAT_ID":68016,"ELEMENT_SET_NO":999,"REV_AT_EPOCH":405,"BSTAR":-0.012231764,"MEAN_MOTION_DOT":-0.01902744,"MEAN_MOTION_DDOT":0},{"OBJECT_NAME":"STARLINK-36568","OBJECT_ID":"2026-040C","EPOCH":"2026-03-20T02:00:03.000384","MEAN_MOTION":15.78136617,"ECCENTRICITY":0.0001422,"INCLINATION":97.2801,"RA_OF_ASC_NODE":28.0394,"ARG_OF_PERICENTER":102.7876,"MEAN_ANOMALY":175.3142,"EPHEMERIS_TYPE":0,"CLASSIFICATION_TYPE":"U","NORAD_CAT_ID":68017,"ELEMENT_SET_NO":999,"REV_AT_EPOCH":409,"BSTAR":-0.013245,"MEAN_MOTION_DOT":-0.01953682,"MEAN_MOTION_DDOT":0},{"OBJECT_NAME":"STARLINK-36930","OBJECT_ID":"2026-040D","EPOCH":"2026-03-20T02:00:03.000384","MEAN_MOTION":15.7824199,"ECCENTRICITY":0.0001405,"INCLINATION":97.2797,"RA_OF_ASC_NODE":28.0347,"ARG_OF_PERICENTER":108.9366,"MEAN_ANOMALY":160.8836,"EPHEMERIS_TYPE":0,"CLASSIFICATION_TYPE":"U","NORAD_CAT_ID":68018,"ELEMENT_SET_NO":999,"REV_AT_EPOCH":409,"BSTAR":-0.013146,"MEAN_MOTION_DOT":-0.01949088,"MEAN_MOTION_DDOT":0},{"OBJECT_NAME":"STARLINK-36921","OBJECT_ID":"2026-040E","EPOCH":"2026-03-19T20:00:01.999872","MEAN_MOTION":15.8030473,"ECCENTRICITY":0.00012049,"INCLINATION":97.2808,"RA_OF_ASC_NODE":27.7812,"ARG_OF_PERICENTER":91.6337,"MEAN_ANOMALY":216.1883,"EPHEMERIS_TYPE":0,"CLASSIFICATION_TYPE":"U","NORAD_CAT_ID":68019,"ELEMENT_SET_NO":999,"REV_AT_EPOCH":405,"BSTAR":-0.011590121,"MEAN_MOTION_DOT":-0.0189561,"MEAN_MOTION_DDOT":0},{"OBJECT_NAME":"STARLINK-36928","OBJECT_ID":"2026-040F","EPOCH":"2026-03-20T02:00:03.000384","MEAN_MOTION":15.7890125,"ECCENTRICITY":0.0001428,"INCLINATION":97.2821,"RA_OF_ASC_NODE":28.0406,"ARG_OF_PERICENTER":101.0684,"MEAN_ANOMALY":182.8525,"EPHEMERIS_TYPE":0,"CLASSIFICATION_TYPE":"U","NORAD_CAT_ID":68020,"ELEMENT_SET_NO":999,"REV_AT_EPOCH":409,"BSTAR":-0.01273,"MEAN_MOTION_DOT":-0.01945209,"MEAN_MOTION_DDOT":0},{"OBJECT_NAME":"STARLINK-36858","OBJECT_ID":"2026-040G","EPOCH":"2026-03-20T03:54:21.096288","MEAN_MOTION":15.84584301,"ECCENTRICITY":7.22e-5,"INCLINATION":97.2785,"RA_OF_ASC_NODE":28.2757,"ARG_OF_PERICENTER":132.3403,"MEAN_ANOMALY":227.7929,"EPHEMERIS_TYPE":0,"CLASSIFICATION_TYPE":"U","NORAD_CAT_ID":68021,"ELEMENT_SET_NO":999,"REV_AT_EPOCH":301,"BSTAR":-0.0039861,"MEAN_MOTION_DOT":-0.00829337,"MEAN_MOTION_DDOT":0},{"OBJECT_NAME":"STARLINK-36916","OBJECT_ID":"2026-040H","EPOCH":"2026-03-19T20:00:01.999872","MEAN_MOTION":15.79773807,"ECCENTRICITY":0.00011325,"INCLINATION":97.2783,"RA_OF_ASC_NODE":27.7833,"ARG_OF_PERICENTER":102.5171,"MEAN_ANOMALY":213.5137,"EPHEMERIS_TYPE":0,"CLASSIFICATION_TYPE":"U","NORAD_CAT_ID":68022,"ELEMENT_SET_NO":999,"REV_AT_EPOCH":405,"BSTAR":-0.012003223,"MEAN_MOTION_DOT":-0.01913167,"MEAN_MOTION_DDOT":0},{"OBJECT_NAME":"STARLINK-36871","OBJECT_ID":"2026-040J","EPOCH":"2026-03-20T02:00:03.000384","MEAN_MOTION":15.78257364,"ECCENTRICITY":0.0001288,"INCLINATION":97.2798,"RA_OF_ASC_NODE":28.0468,"ARG_OF_PERICENTER":109.0912,"MEAN_ANOMALY":190.683,"EPHEMERIS_TYPE":0,"CLASSIFICATION_TYPE":"U","NORAD_CAT_ID":68023,"ELEMENT_SET_NO":999,"REV_AT_EPOCH":409,"BSTAR":-0.01311,"MEAN_MOTION_DOT":-0.01945539,"MEAN_MOTION_DDOT":0},{"OBJECT_NAME":"STARLINK-36891","OBJECT_ID":"2026-040K","EPOCH":"2026-03-20T02:00:03.000384","MEAN_MOTION":15.7820352,"ECCENTRICITY":0.0001407,"INCLINATION":97.2796,"RA_OF_ASC_NODE":28.0488,"ARG_OF_PERICENTER":102.1625,"MEAN_ANOMALY":201.7553,"EPHEMERIS_TYPE":0,"CLASSIFICATION_TYPE":"U","NORAD_CAT_ID":68024,"ELEMENT_SET_NO":999,"REV_AT_EPOCH":409,"BSTAR":-0.013149,"MEAN_MOTION_DOT":-0.01946555,"MEAN_MOTION_DDOT":0},{"OBJECT_NAME":"STARLINK-36378","OBJECT_ID":"2026-040L","EPOCH":"2026-03-20T02:00:03.000384","MEAN_MOTION":15.78081525,"ECCENTRICITY":0.0001372,"INCLINATION":97.2815,"RA_OF_ASC_NODE":28.0557,"ARG_OF_PERICENTER":103.6931,"MEAN_ANOMALY":208.5132,"EPHEMERIS_TYPE":0,"CLASSIFICATION_TYPE":"U","NORAD_CAT_ID":68025,"ELEMENT_SET_NO":999,"REV_AT_EPOCH":404,"BSTAR":-0.01315,"MEAN_MOTION_DOT":-0.01937405,"MEAN_MOTION_DDOT":0},{"OBJECT_NAME":"STARLINK-36884","OBJECT_ID":"2026-040M","EPOCH":"2026-03-20T02:00:03.000384","MEAN_MOTION":15.78556733,"ECCENTRICITY":0.0001196,"INCLINATION":97.2805,"RA_OF_ASC_NODE":28.0515,"ARG_OF_PERICENTER":99.8029,"MEAN_ANOMALY":209.1457,"EPHEMERIS_TYPE":0,"CLASSIFICATION_TYPE":"U","NORAD_CAT_ID":68026,"ELEMENT_SET_NO":999,"REV_AT_EPOCH":409,"BSTAR":-0.012908,"MEAN_MOTION_DOT":-0.01942057,"MEAN_MOTION_DDOT":0},{"OBJECT_NAME":"STARLINK-36940","OBJECT_ID":"2026-040N","EPOCH":"2026-03-20T02:00:03.000384","MEAN_MOTION":15.77386191,"ECCENTRICITY":0.0001378,"INCLINATION":97.2857,"RA_OF_ASC_NODE":28.0827,"ARG_OF_PERICENTER":107.6692,"MEAN_ANOMALY":254.0206,"EPHEMERIS_TYPE":0,"CLASSIFICATION_TYPE":"U","NORAD_CAT_ID":68027,"ELEMENT_SET_NO":999,"REV_AT_EPOCH":419,"BSTAR":-0.013394,"MEAN_MOTION_DOT":-0.01915861,"MEAN_MOTION_DDOT":0}]
