STARLINK-36936          
1 68012U 26039AC  26079.08336806 -.01881644  00000+0 -30593-1 0  9999
2 68012  42.9989 351.7033 0001510 269.3916 175.7336 15.55300044  4547
STARLINK-36967          
1 68013U 26039AD  26079.08336806 -.00063116  00000+0 -10783-2 0  9995
2 68013  42.9998 352.3222 0001401 278.5795 276.3474 15.50589308  4549
STARLINK-36985          
1 68014U 26039AE  26079.08336806 -.01937102  00000+0 -23086-1 0  9991
2 68014  42.9994 351.3204 0001297 256.0709 343.3621 15.63463091  4547
STARLINK-36335          
1 68015U 26040A   26079.08336806 -.01954558  00000+0 -12904-1 0  9995
2 68015  97.2798  28.0327 0001667 116.0214 150.4740 15.78720765  4048
STARLINK-36923          
1 68016U 26040B   26078.83335648 -.01902744  00000+0 -12232-1 0  9995
2 68016  97.2790  27.7742 0001157  89.6838 204.3545 15.79223210  4056
STARLINK-36568          
1 68017U 26040C   26079.08336806 -.01953682  00000+0 -13245-1 0  9993
2 68017  97.2801  28.0394 0001422 102.7876 175.3142 15.78136617  4098
STARLINK-36930          
1 68018U 26040D   26079.08336806 -.01949088  00000+0 -13146-1 0  9999
2 68018  97.2797  28.0347 0001405 108.9366 160.8836 15.78241990  4094
STARLINK-36921          
1 68019U 26040E   26078.83335648 -.01895610  00000+0 -11590-1 0  9997
2 68019  97.2808  27.7812 0001204  91.6337 216.1883 15.80304730  4052
STARLINK-36928          
1 68020U 26040F   26079.08336806 -.01945209  00000+0 -12730-1 0  9991
2 68020  97.2821  28.0406 0001428 101.0684 182.8525 15.78901250  4094
STARLINK-36858          
1 68021U 26040G   26079.16274417 -.00829337  00000+0 -39861-2 0  9997
2 68021  97.2785  28.2757 0000722 132.3403 227.7929 15.84584301  3016
STARLINK-36916          
1 68022U 26040H   26078.83335648 -.01913167  00000+0 -12003-1 0  9999
2 68022  97.2783  27.7833 0001132 102.5171 213.5137 15.79773807  4055
STARLINK-36871          
1 68023U 26040J   26079.08336806 -.01945539  00000+0 -13110-1 0  9993
2 68023  97.2798  28.0468 0001288 109.0912 190.6830 15.78257364  4090
STARLINK-36891          
1 68024U 26040K   26079.08336806 -.01946555  00000+0 -13149-1 0  9995
2 68024  97.2796  28.0488 0001407 102.1625 201.7553 15.78203520  4090
STARLINK-36378          
1 68025U 26040L   26079.08336806 -.01937405  00000+0 -13150-1 0  9992
2 68025  97.2815  28.0557 0001372 103.6931 208.5132 15.78081525  4049
STARLINK-36884          
1 68026U 26040M   26079.08336806 -.01942057  00000+0 -12908-1 0  9992
2 68026  97.2805  28.0515 0001196  99.8029 209.1457 15.78556733  4091
STARLINK-36940          
1 68027U 26040N   26079.08336806 -.01915861  00000+0 -13394-1 0  9996
2 68027  97.2857  28.0827 0001378 107.6692 254.0206 15.77386191  4191
